[{"OBJECT_NAME":"STARLINK-2252","OBJECT_ID":"2021-041AU","EPOCH":"2026-03-09T10:25:39.685440","MEAN_MOTION":15.06396519,"ECCENTRICITY":0.00013149,"INCLINATION":53.0548,"RA_OF_ASC_NODE":142.7665,"ARG_OF_PERICENTER":91.8997,"MEAN_ANOMALY":268.2143,"EPHEMERIS_TYPE":0,"CLASSIFICATION_TYPE":"U","NORAD_CAT_ID":48595,"ELEMENT_SET_NO":999,"REV_AT_EPOCH":26629,"BSTAR":6.8973137e-5,"MEAN_MOTION_DOT":7.46e-6,"MEAN_MOTION_DDOT":0},{"OBJECT_NAME":"CZ-4B DEB","OBJECT_ID":"2004-035J","EPOCH":"2026-03-07T20:16:16.859712","MEAN_MOTION":15.09572175,"ECCENTRICITY":0.00105031,"INCLINATION":97.5432,"RA_OF_ASC_NODE":82.067,"ARG_OF_PERICENTER":356.2804,"MEAN_ANOMALY":3.8346,"EPHEMERIS_TYPE":0,"CLASSIFICATION_TYPE":"U","NORAD_CAT_ID":29042,"ELEMENT_SET_NO":999,"REV_AT_EPOCH":69625,"BSTAR":0.00031812935,"MEAN_MOTION_DOT":5.052e-5,"MEAN_MOTION_DDOT":0}]
